NORAD_CAT_ID,OBJECT_NAME,OBJECT_TYPE,EPOCH,MEAN_MOTION,ECCENTRICITY,INCLINATION,RA_OF_ASC_NODE,ARG_OF_PERICENTER,MEAN_ANOMALY,BSTAR,MEAN_MOTION_DOT,MEAN_MOTION_DDOT,TLE_LINE0,TLE_LINE1,TLE_LINE2,SEMIMAJOR_AXIS,PERIOD,APOGEE,PERIGEE,DECAYED
49444.0,STARLINK-3126,PAYLOAD,2022-12-31 02:44:01,15.08850281,0.0002454,53.2175,37.1087,29.5337,330.5793,0.00025571,3.785e-05,0.0,0 STARLINK-3126,1 49444U 21104AN  22365.11391087  .00003785  00000-0  25571-3 0  9997,2 49444  53.2175  37.1087 0002454  29.5337 330.5793 15.08850281 64176,6917.849,95.437,541.4119999999998,538.016,0.0
49444.0,STARLINK-3126,PAYLOAD,2022-12-31 12:16:22,15.08828233,0.0002631999999999,53.2167,35.3283,29.532,330.5821,0.00012645,1.724e-05,0.0,0 STARLINK-3126,1 49444U 21104AN  22365.51136809  .00001724  00000-0  12645-3 0  9999,2 49444  53.2167  35.3283 0002632  29.5320 330.5821 15.08828233 64236,6917.916,95.438,541.602,537.961,0.0
49444.0,STARLINK-3126,PAYLOAD,2022-12-31 18:37:54,15.08828171,0.0002701,53.2165,34.1366,28.1166,331.9971,-2.8935000000000008e-06,-3.35e-06,0.0,0 STARLINK-3126,1 49444U 21104AN  22365.77632990 -.00000335  00000-0 -28935-5 0  9999,2 49444  53.2165  34.1366 0002701  28.1166 331.9971 15.08828171 63201,6917.917,95.438,541.65,537.913,0.0
49444.0,STARLINK-3126,PAYLOAD,2023-01-01 08:56:22,15.0883798,0.0002711,53.2173,31.4601,31.1275,328.9877,-6.2896e-05,-1.289e-05,0.0,0 STARLINK-3126,1 49444U 21104AN  23001.37248735 -.00001289  00000-0 -62896-4 0  9995,2 49444  53.2173  31.4601 0002711  31.1275 328.9877 15.08837980 63296,6917.887,95.438,541.627,537.876,0.0
49444.0,STARLINK-3126,PAYLOAD,2023-01-01 18:28:42,15.08827049,0.0002674,53.2171,29.6765,29.8616,330.2528,-0.00019305,-3.359e-05,0.0,0 STARLINK-3126,1 49444U 21104AN  23001.76993257 -.00003359  00000-0 -19305-3 0  9990,2 49444  53.2171  29.6765 0002674  29.8616 330.2528 15.08827049 63356,6917.92,95.438,541.635,537.935,0.0
49444.0,STARLINK-3126,PAYLOAD,2023-01-02 02:25:38,15.08829362,0.0002638,53.217,28.19,28.0566,332.0568,-0.00012468,-2.272e-05,0.0,0 STARLINK-3126,1 49444U 21104AN  23002.10113574 -.00002272  00000-0 -12468-3 0  9991,2 49444  53.2170  28.1900 0002638  28.0566 332.0568 15.08829362 64473,6917.913000000001,95.438,541.6030000000002,537.953,0.0
49444.0,STARLINK-3126,PAYLOAD,2023-01-02 10:22:34,15.08828523,0.0002673,53.2175,26.70300000000001,31.5268,328.5884,-0.00017195,-3.023e-05,0.0,0 STARLINK-3126,1 49444U 21104AN  23002.43233947 -.00003023  00000-0 -17195-3 0  9991,2 49444  53.2175  26.7030 0002673  31.5268 328.5884 15.08828523 63459,6917.915,95.438,541.63,537.931,0.0
49444.0,STARLINK-3126,PAYLOAD,2023-01-03 10:13:22,15.08828426,0.0002761,53.2172,22.2415,27.7557,332.3582,0.00011669,1.569e-05,0.0,0 STARLINK-3126,1 49444U 21104AN  23003.42595077  .00001569  00000-0  11669-3 0  9997,2 49444  53.2172  22.2415 0002761  27.7557 332.3582 15.08828426 64675,6917.916,95.438,541.691,537.871,0.0
49444.0,STARLINK-3126,PAYLOAD,2023-01-04 08:28:46,15.08835406,0.0002742,53.2178,18.0784,30.0989,330.0161,0.00026859,3.988e-05,0.0,0 STARLINK-3126,1 49444U 21104AN  23004.35331479  .00003988  00000-0  26859-3 0  9998,2 49444  53.2178  18.0784 0002742  30.0989 330.0161 15.08835406 63749,6917.894,95.438,541.656,537.863,0.0
49444.0,STARLINK-3126,PAYLOAD,2023-01-05 08:19:31,15.08862532,0.0002693,53.2174,13.6186,29.9422,330.1724,0.00047365,7.263e-05,0.0,0 STARLINK-3126,1 49444U 21104AN  23005.34689773  .00007263  00000-0  47365-3 0  9996,2 49444  53.2174  13.6186 0002693  29.9422 330.1724 15.08862532 64967,6917.812,95.436,541.539,537.814,0.0
49444.0,STARLINK-3126,PAYLOAD,2023-01-05 11:30:18,15.08864421,0.0002722,53.217,13.0236,28.4403,331.6737,0.00046681,7.154e-05,0.0,0 STARLINK-3126,1 49444U 21104AN  23005.47937532  .00007154  00000-0  46681-3 0  9998,2 49444  53.2170  13.0236 0002722  28.4403 331.6737 15.08864421 63912,6917.806,95.436,541.554,537.788,0.0
49444.0,STARLINK-3126,PAYLOAD,2023-01-05 17:51:50,15.08863318,0.0002676,53.2169,11.8339,29.8826,330.2319,0.00036046,5.457e-05,0.0,0 STARLINK-3126,1 49444U 21104AN  23005.74433224  .00005457  00000-0  36046-3 0  9995,2 49444  53.2169  11.8339 0002676  29.8826 330.2319 15.08863318 63951,6917.809,95.436,541.525,537.823,0.0
49444.0,STARLINK-3126,PAYLOAD,2023-01-06 06:34:55,15.08851359,0.0002925,53.2183,9.4558,36.4539,323.6651,3.2383000000000005e-05,2.27e-06,0.0,0 STARLINK-3126,1 49444U 21104AN  23006.27425424  .00000227  00000-0  32383-4 0  9998,2 49444  53.2183   9.4558 0002925  36.4539 323.6651 15.08851359 65101,6917.846,95.437,541.734,537.687,0.0
49444.0,STARLINK-3126,PAYLOAD,2023-01-06 09:45:42,15.08840236,0.0002672,53.2179,8.8614,19.4185,340.6908,-1.926e-05,-5.95e-06,0.0,0 STARLINK-3126,1 49444U 21104AN  23006.40673977 -.00000595  00000-0 -19260-4 0  9990,2 49444  53.2179   8.8614 0002672  19.4185 340.6908 15.08840236 65127,6917.88,95.438,541.5930000000002,537.896,0.0
49444.0,STARLINK-3126,PAYLOAD,2023-01-07 06:25:42,15.08843257,0.0002744,53.2176,4.9955,26.9237,333.1897,-0.0001212,-2.217e-05,0.0,0 STARLINK-3126,1 49444U 21104AN  23007.26785861 -.00002217  00000-0 -12120-3 0  9991,2 49444  53.2176   4.9955 0002744  26.9237 333.1897 15.08843257 64185,6917.87,95.437,541.634,537.837,0.0
49444.0,STARLINK-3126,PAYLOAD,2023-01-07 19:08:48,15.08840667,0.0002853999999999,53.2182,2.6167,30.9073,329.2086,-9.6373e-05,-1.822e-05,0.0,0 STARLINK-3126,1 49444U 21104AN  23007.79778514 -.00001822  00000-0 -96373-4 0  9990,2 49444  53.2182   2.6167 0002854  30.9073 329.2086 15.08840667 65333,6917.8780000000015,95.438,541.7180000000002,537.769,0.0
49444.0,STARLINK-3126,PAYLOAD,2023-01-08 06:16:30,15.08832677,0.000263,53.2184,0.5352,23.6211,336.4901,6.8083e-05,7.95e-06,0.0,0 STARLINK-3126,1 49444U 21104AN  23008.26146846  .00000795  00000-0  68083-4 0  9993,2 49444  53.2184   0.5352 0002630  23.6211 336.4901 15.08832677 64330,6917.903,95.438,541.587,537.948,0.0
49444.0,STARLINK-3126,PAYLOAD,2023-01-08 18:59:36,15.08834739,0.000274,53.2181,358.1559,27.6681,332.4457,0.0002441,3.598e-05,0.0,0 STARLINK-3126,1 49444U 21104AN  23008.79138903  .00003598  00000-0  24410-3 0  9995,2 49444  53.2181 358.1559 0002740  27.6681 332.4457 15.08834739 64417,6917.896,95.438,541.6569999999998,537.866,0.0
49444.0,STARLINK-3126,PAYLOAD,2023-01-09 06:07:17,15.08847533,0.00027,53.2175,356.0746,28.3201,331.7937,0.00025788,3.819e-05,0.0,0 STARLINK-3126,1 49444U 21104AN  23009.25506613  .00003819  00000-0  25788-3 0  9999,2 49444  53.2175 356.0746 0002700  28.3201 331.7937 15.08847533 65554,6917.857,95.437,541.59,537.855,0.0
49444.0,STARLINK-3126,PAYLOAD,2023-01-09 15:39:36,15.08850722,0.0002715,53.2177,354.2905,28.1635,331.9504,0.00024197,3.566e-05,0.0,0 STARLINK-3126,1 49444U 21104AN  23009.65250368  .00003566  00000-0  24197-3 0  9998,2 49444  53.2177 354.2905 0002715  28.1635 331.9504 15.08850722 64542,6917.848000000001,95.437,541.591,537.8340000000002,0.0
49444.0,STARLINK-3126,PAYLOAD,2023-01-10 07:33:27,15.08843921,0.0002723999999999,53.2174,351.3166,30.0412,330.0736,3.8256e-05,3.2e-06,0.0,0 STARLINK-3126,1 49444U 21104AN  23010.31490446  .00000320  00000-0  38256-4 0  9993,2 49444  53.2174 351.3166 0002724  30.0412 330.0736 15.08843921 65711,6917.868,95.437,541.618,537.849,0.0
49444.0,STARLINK-3126,PAYLOAD,2023-01-10 15:30:23,15.08836698,0.000272,53.2172,349.8298,31.4624,328.6531,-0.00012475,-2.273e-05,0.0,0 STARLINK-3126,1 49444U 21104AN  23010.64610656 -.00002273  00000-0 -12475-3 0  9991,2 49444  53.2172 349.8298 0002720  31.4624 328.6531 15.08836698 64698,6917.89,95.438,541.637,537.874,0.0
49444.0,STARLINK-3126,PAYLOAD,2023-01-11 05:48:51,15.08849918,0.000252,53.2177,347.1536,28.6109,331.5021,0.00011428,1.531e-05,0.0,0 STARLINK-3126,1 49444U 21104AN  23011.24225987  .00001531  00000-0  11428-3 0  9998,2 49444  53.2177 347.1536 0002520  28.6109 331.5021 15.08849918 64789,6917.85,95.437,541.4580000000002,537.972,0.0
49444.0,STARLINK-3126,PAYLOAD,2023-01-11 16:56:33,15.08843148,0.0002271,53.2171,345.0708,34.9339,325.1802,1.8385e-05,4e-08,0.0,0 STARLINK-3126,1 49444U 21104AN  23011.70594152  .00000004  00000-0  18385-4 0  9996,2 49444  53.2171 345.0708 0002271  34.9339 325.1802 15.08843148 65921,6917.871,95.437,541.307,538.165,0.0
49444.0,STARLINK-3126,PAYLOAD,2023-01-11 21:42:43,15.08826669,0.0002466,53.2174,344.1796,30.9187,329.195,-0.00016906,-2.977e-05,0.0,0 STARLINK-3126,1 49444U 21104AN  23011.90467142 -.00002977  00000-0 -16906-3 0  9995,2 49444  53.2174 344.1796 0002466  30.9187 329.1950 15.08826669 64885,6917.920999999999,95.438,541.492,538.08,0.0
49444.0,STARLINK-3126,PAYLOAD,2023-01-12 04:04:16,15.08831726,0.0002245,53.2177,342.99,33.268,326.8453,-7.6547e-05,-1.506e-05,0.0,0 STARLINK-3126,1 49444U 21104AN  23012.16962963 -.00001506  00000-0 -76547-4 0  9990,2 49444  53.2177 342.9900 0002245  33.2680 326.8453 15.08831726 65995,6917.906,95.438,541.3240000000002,538.2180000000002,0.0
49444.0,STARLINK-3126,PAYLOAD,2023-01-12 21:33:31,15.08828457,0.0002421,53.217,339.7205,35.0189,325.0962,-9.4634e-05,-1.794e-05,0.0,0 STARLINK-3126,1 49444U 21104AN  23012.89827746 -.00001794  00000-0 -94634-4 0  9995,2 49444  53.2170 339.7205 0002421  35.0189 325.0962 15.08828457 65038,6917.916,95.438,541.455,538.106,0.0
49444.0,STARLINK-3126,PAYLOAD,2023-01-13 03:55:03,15.08835379,0.0002085,53.219,338.5296,30.8746,329.2368,-2.6213e-06,-3.3e-06,0.0,0 STARLINK-3126,1 49444U 21104AN  23013.16323713 -.00000330  00000-0 -26213-5 0  9995,2 49444  53.2190 338.5296 0002085  30.8746 329.2368 15.08835379 65076,6917.895,95.438,541.202,538.317,0.0
49444.0,STARLINK-3126,PAYLOAD,2023-01-13 15:02:45,15.08837044,0.0002039,53.2171,336.4475,41.5041,318.6106,0.00014286,1.986e-05,0.0,0 STARLINK-3126,1 49444U 21104AN  23013.62691741  .00001986  00000-0  14286-3 0  9996,2 49444  53.2171 336.4475 0002039  41.5041 318.6106 15.08837044 66217,6917.889,95.438,541.165,538.344,0.0
